<?xml version="1.0" encoding="utf-8" ?>
<kml xmlns="http://www.opengis.net/kml/2.2">
<Document id="root_doc">
<Schema name="7027_Combined_SrcArea" id="7027_Combined_SrcArea">
	<SimpleField name="OBJECTID" type="float"></SimpleField>
	<SimpleField name="Id" type="float"></SimpleField>
	<SimpleField name="Shape_Leng" type="float"></SimpleField>
	<SimpleField name="Shape_Area" type="float"></SimpleField>
</Schema>
<Folder><name>7027_Combined_SrcArea</name>
  <Placemark>
	<Style><LineStyle><color>ff0000ff</color></LineStyle><PolyStyle><fill>0</fill></PolyStyle></Style>
	<ExtendedData><SchemaData schemaUrl="#7027_Combined_SrcArea">
		<SimpleData name="OBJECTID">1</SimpleData>
		<SimpleData name="Id">0</SimpleData>
		<SimpleData name="Shape_Leng">181992.168824968248373</SimpleData>
		<SimpleData name="Shape_Area">2099332444.611942768096924</SimpleData>
	</SchemaData></ExtendedData>
      <MultiGeometry><Polygon><outerBoundaryIs><LinearRing><coordinates>-57.1648193844497,7.80173828860249 -57.1695650304271,7.80158147537766 -57.174310800944,7.80173448586138 -57.1790363827682,7.80219666536746 -57.1837215508365,7.80296603487553 -57.1883462533008,7.80403930273902 -57.1928906956738,7.80541187276129 -57.1973354258995,7.80707787215752 -57.2016614203412,7.80903016864851 -57.2058501598166,7.81126040654236 -57.2098837156303,7.81375904008658 -57.2137448193047,7.81651537315 -57.2155511562977,7.81794214132202 -57.2307655354571,7.83035584431855 -57.2326314313797,7.83193123865717 -57.2360990667764,7.8351663902686 -57.2393471527776,7.83862075180215 -57.2423617805119,7.84227953498712 -57.2451300386275,7.84612707725446 -57.2476400696046,7.85014690943853 -57.2498811215609,7.85432182167434 -57.2518435919272,7.858633940158 -57.2535190711516,7.86306480572169 -57.2549003764462,7.86759544609 -57.2559815837525,7.87220646533264 -57.2567580551826,7.87687811976182 -57.2572264546931,7.88159040741658 -57.257384766489,7.8863231512263 -57.2573847779672,7.88635199193921 -57.2574007739671,7.95862971020367 -57.257248297703,7.96333378686131 -57.2567856458119,7.96804662893938 -57.256014776977,7.97271921435334 -57.2549389813035,7.97733153201038 -57.2535628553397,7.981863828973 -57.2518922832867,7.98629669644416 -57.2499344109281,7.99061114672488 -57.2476976141074,7.99478870285147 -57.2451914644497,7.9988114710594 -57.2433838192092,8.0013885602538 -57.1889756005713,8.07545749406137 -57.1880181304272,8.0767310312015 -57.1850055386023,8.08039288247776 -57.1820615414788,8.08354696187864 -57.1704049523926,8.09531215917861 -57.1701024255044,8.09561569222939 -57.1666357122718,8.09885417338729 -57.1629638305167,8.10185973247315 -57.1591025058574,8.10461949518048 -57.1550682774178,8.10712163825974 -57.1536526890508,8.1078763597352 -57.1061046204364,8.1924556333785 -57.1056501075455,8.19325206554466 -57.1031413448138,8.19727397861837 -57.1003738860881,8.20112378373889 -57.0973595760079,8.20478499202541 -57.0941113214619,8.20824192016581 -57.0906430308279,8.21147975838654 -57.0894031062101,8.21249401693663 -57.0894712447338,8.21290679268646 -57.0895252045648,8.21324357622848 -57.08957756932,8.21358060614786 -57.0896759184076,8.2142556189492 -57.0897218972753,8.21459357198405 -57.0897392268417,8.21472269099111 -57.089807457263,8.2152703116274 -57.089847033826,8.21560906838839 -57.0899197736946,8.2162872951893 -57.0899529333508,8.21662673447677 -57.0900128275272,8.21730620693874 -57.0900395593058,8.21764620845585 -57.090072166882,8.21809710673109 -57.0900865867558,8.21832668507959 -57.0901068805934,8.21866712852844 -57.0901410239136,8.21934836690757 -57.0901548724702,8.21968913108418 -57.0901761206121,8.2203708897136 -57.0901835183635,8.22071185341275 -57.0901918620941,8.22139388988064 -57.0901928080553,8.22173493189512 -57.0901929450092,8.22182670514057 -57.0901882454047,8.22241700378623 -57.0901827367749,8.22275800290836 -57.0901652694051,8.22343986780477 -57.0901533097391,8.22378070282456 -57.0901229429436,8.22446211830573 -57.0901045367042,8.22480266801204 -57.0900798464807,8.22521550849585 -57.0900612812251,8.22548339255899 -57.0900364337833,8.22582353664413 -57.0900099773813,8.226163563492 -57.0837038569747,8.30252509071504 -57.0836730859022,8.30287664704118 -57.0836405938375,8.30322804542599 -57.0835687312114,8.30393017787194 -57.0835293642633,8.30428087846319 -57.0834445433446,8.30497558909942 -57.0834437654097,8.30498148144189 -57.0833975380255,8.3053313494545 -57.0832982345645,8.30603015610778 -57.0832451639173,8.3063790603732 -57.0831321947352,8.30707580383931 -57.0830723016306,8.30742361047362 -57.0829457083404,8.30811802660189 -57.0828790154015,8.30846460352886 -57.0828319350146,8.30870486206673 -57.0827388468827,8.30915642816508 -57.0826653785496,8.30950164330713 -57.0825116882244,8.31019061319873 -57.0824314734793,8.31053433538088 -57.0822643193129,8.31122018817699 -57.082177388047,8.31156228622314 -57.0820520195798,8.31204181722092 -57.0819968334557,8.31224476047441 -57.0819032191944,8.31258510501586 -57.0817093330464,8.31326394198356 -57.0816090711321,8.31360240184124 -57.0814019268389,8.31427734278398 -57.0812950544326,8.31461379130025 -57.0810747308575,8.31528457837824 -57.0809612905701,8.31561888617988 -57.0809482563645,8.31565722778094 -57.0807278711207,8.31628526607346 -57.0806079046568,8.31661730650021 -57.0803614781927,8.31727902407786 -57.0802350317991,8.31760866956321 -57.0799756926328,8.31826547421341 -57.0798428125586,8.3185926008082 -57.0797320662631,8.31886211545559 -57.0795706595465,8.31924424101248 -57.0794313983996,8.31956872386102 -57.0791465340354,8.32021495352595 -57.0790009435174,8.32053666867653 -57.0787034766551,8.32117723989695 -57.0785516130108,8.32149606520536 -57.0783147131999,8.32198394860366 -57.0782416561421,8.32213073550128 -57.0780835774347,8.32244655063139 -57.0777612485041,8.32307507752051 -57.0775970137067,8.32338776032635 -57.0772624361127,8.3240099058468 -57.0770921087423,8.32431933870361 -57.0767454086122,8.32493486579647 -57.0765690530957,8.32524093017424 -57.0765255322361,8.32531624966622 -57.0762103629188,8.32584960358738 -57.0760280455021,8.3261521836689 -57.0756575023137,8.32675377267107 -57.0754692928781,8.32705275354254 -57.0750870364427,8.3276470283057 -57.0748930075961,8.32794229505231 -57.0747060415803,8.32822393619182 -57.0744991840411,8.32852903117365 -57.0742994083942,8.32882047159396 -57.073894166576,8.32939944376493 -57.0736887203752,8.32968694837004 -57.0732722155134,8.33025793761211 -57.0730611768235,8.33054139510344 -57.0727054660067,8.33101113824829 -57.0726335677754,8.33110418334145 -57.072417017389,8.33138348694241 -57.0719784648341,8.3319378606231 -57.0717564844544,8.33221290355677 -57.0713071572512,8.3327586509342 -57.0710798322172,8.33302932913642 -57.0706199001381,8.33356624298695 -57.0703873157914,8.3338324532981 -57.0702992572799,8.33393286830682 -57.0699169549716,8.33436032911044 -57.0696792002895,8.33462197017921 -57.0691985886865,8.33514060705991 -57.0689557544653,8.33539757843925 -57.0687116609487,8.33565337036734 -57.0501791920138,8.35488399244978 -57.0499276568411,8.35514239954691 -57.0496748360035,8.35539955476184 -57.049408564084,8.3556675849586 -57.049164082876,8.35590883067266 -57.0489061751056,8.35616092603195 -57.0483853480079,8.35665998088161 -57.0481224550173,8.35690691593973 -57.0475917610104,8.35739555245508 -57.0473239863315,8.35763722948012 -57.0468850216426,8.35802701416718 -57.0467836342992,8.35811525491101 -57.0465110841921,8.35835157888465 -57.0459612893816,8.35881880228989 -57.0456840719255,8.35904968000298 -57.0451250504986,8.35950591767828 -57.044843274684,8.35973125592198 -57.0442752500745,8.36017632778126 -57.0439890276198,8.36039603877408 -57.0439296786333,8.36044150026425 -57.0434122223591,8.36082976835041 -57.0431216677103,8.36104376431109 -57.0425363116016,8.36146597875597 -57.0422415382997,8.36167417642655 -57.0416478620604,8.36208470922432 -57.0413489881901,8.36228702444246 -57.041113157718,8.36244532344693 -57.0407472270848,8.36268571360091 -57.0404443698256,8.3628820667277 -57.0398347618492,8.36326875387385 -57.0395280420166,8.36345906798434 -57.0389108288027,8.36383360017356 -57.0386003672149,8.36401779924804 -57.0381743340397,8.36426667473942 -57.0379757931273,8.3643800280597 -57.0376617124217,8.36455803969733 -57.0370300254628,8.36490782123476 -57.0367124500959,8.36507957393984 -57.0360738991815,8.36541677063985 -57.0357529554293,8.3655821974402 -57.035125130428,8.36589816482216 -57.0351077940217,8.36590667535915 -57.0347836081624,8.36606571109252 -57.0341320906374,8.36637734171591 -57.0338047916765,8.36652992212538 -57.0331471769558,8.36682858146302 -57.0328168948097,8.36697464681532 -57.0321534427283,8.36726021811537 -57.0318203064072,8.36739971048748 -57.0316447855061,8.36747266749333 -57.0311512804377,8.36767207971357 -57.0308154234956,8.36780494389685 -57.0301410880233,8.3680640042512 -57.029802643108,8.36819018684726 -57.0291232643387,8.36843583424791 -57.0287823650086,8.36855528728677 -57.0284045781703,8.36868534297441 -57.0280982127857,8.36878742489021 -57.0277549944174,8.36890009949841 -57.0270663394964,8.36911863589082 -57.0267209374685,8.36922448771891 -57.026028052425,8.36942933601159 -57.0256806039346,8.3695283234249 -57.0250934721038,8.36969030252746 -57.0249837631643,8.3697194021589 -57.0246344054101,8.36981148623771 -57.0239338842205,8.36998872028852 -57.0235827562194,8.37007386392341 -57.0228788326458,8.37023718359629 -57.0225260725078,8.37031535239295 -57.0218190254967,8.37046469342317 -57.0214647731501,8.37053585751126 -57.0213706502473,8.37055463631458 -57.0207548816507,8.3706711592551 -57.020399277933,8.37073528967022 -57.0196868236219,8.37085649962759 -57.0193300084637,8.37091357192953 -57.0186152739279,8.37102064122134 -57.0182573890775,8.37107063278038 -57.0179546549705,8.371111628589 -57.0175406559979,8.37116351976691 -57.0171818432044,8.37120641066842 -57.0164633959884,8.37128507733098 -57.0161037979101,8.37132085037543 -57.0153839209669,8.37138526683924 -57.0150236793546,8.37141390754232 -57.0145099898857,8.37145110056807 -57.0143026580028,8.37146404845828 -57.0139419146078,8.37148554595531 -57.0132200341672,8.37152139050015 -57.012858932558,8.37153573664156 -57.0121364792577,8.37155727123138 -57.0117751630031,8.37156445877372 -57.0110524221644,8.37157167525496 -57.0106910339251,8.3715717023836 -57.0106892455039,8.37157170243198 -57.009968291778,8.37156459712854 -57.009606974215,8.371557464744 -57.0088845169898,8.37153604045975 -57.0085234136723,8.37152175036864 -57.007801527599,8.37148601609728 -57.0074407811879,8.37146457372595 -57.0072298780946,8.37145142474211 -57.0067197524963,8.3714145430353 -57.0063595056522,8.37138595742982 -57.0056396187551,8.37132165112717 -57.0052800150466,8.3712859331442 -57.0045615561724,8.37120737565808 -57.0042027364429,8.37116454067857 -57.0037851840704,8.37111224808213 -57.0034859890942,8.3710717636769 -57.0031280969111,8.37102182617874 -57.0024133454975,8.37091486675971 -57.002056521703,8.37085784845865 -57.0016999822984,8.37079906326966 -56.9051340465045,8.35437307024998 -56.9047903863864,8.35431287576174 -56.9044470246817,8.35425103840649 -56.9038155429153,8.35413155700467 -56.903761526624,8.35412080067773 -56.903419421161,8.35405240574118 -56.9027365627847,8.35390907640914 -56.9023958398526,8.35383414925978 -56.9017158719181,8.35367778177586 -56.9013766578047,8.35359634959248 -56.9006998319775,8.35342700193348 -56.9003622511524,8.35333909460928 -56.9001407994065,8.35328068434841 -56.8996888172779,8.3531568292766 -56.899352995117,8.35306247941984 -56.898683202129,8.35286736343978 -56.8983492621901,8.35276660546846 -56.897683356294,8.35255871039163 -56.8973514221323,8.35245158324765 -56.8968642953519,8.35229057280328 -56.8966896495291,8.35223098605414 -56.8963598428824,8.35211752777549 -56.895702448861,8.35188430997009 -56.8953748923726,8.35176456221426 -56.8947221185844,8.35151881073022 -56.8943969321705,8.35139281877318 -56.8937490202632,8.35113462325945 -56.8934263247467,8.35100243237845 -56.8933342994327,8.35096458796049 -56.8927835127297,8.35073188881683 -56.892463427114,8.35059354881236 -56.8918259539009,8.35031075680503 -56.8915085953713,8.35016631747805 -56.8908766953293,8.34987138115054 -56.890562181976,8.34972089773039 -56.8902171804329,8.34955358663184 -56.889936087651,8.34941392663683 -56.8896245357462,8.34925745254423 -56.8890044796792,8.34893855985863 -56.8886960036753,8.34877615394186 -56.8880822129529,8.34844545645661 -56.8877769272999,8.34827717937386 -56.887195566566,8.34794973790673 -56.8871696299111,8.34793480021494 -56.8868676463319,8.34776071352898 -56.88626706572,8.34740677763171 -56.8859684968429,8.3472269456199 -56.8853748546284,8.3468615851569 -56.8850798094462,8.34667607390536 -56.8844933263365,8.3462994228594 -56.8842019138389,8.34610830116851 -56.8839900981623,8.34596832073749 -56.8836228041779,8.34572049894904 -56.8833351333522,8.34552383652439 -56.8830484105053,8.34532579837 -56.8526273427224,8.32409555769737 -56.8523329488296,8.32388790575997 -56.8520395974709,8.3236788022122 -56.8514570936378,8.32325481242949 -56.8511679702208,8.32303994701595 -56.8507670540807,8.32273767552719 -56.850594038502,8.32260451769506 -56.8503092574406,8.32238397460856 -56.8497441221189,8.32193727775204 -56.8494637960064,8.32171114570785 -56.8489076813581,8.32125335693733 -56.8486319200607,8.32102172374564 -56.8480891902052,8.32055664836782 -56.8480850449056,8.32055302410876 -56.8478139582856,8.32031598119829 -56.847276537804,8.3198365553602 -56.8470102320872,8.31959419687226 -56.8464824796354,8.3191042349253 -56.8462210592283,8.31885665590532 -56.8457031827076,8.3183563497493 -56.8454467511046,8.31810364795621 -56.845299581561,8.31795778733231 -56.8449389538672,8.31759319672595 -56.8446876127431,8.31733547172723 -56.8441900963188,8.31681507546168 -56.84394394462,8.31655242953753 -56.8434569032662,8.31602229370022 -56.8432160381197,8.31575483003469 -56.8429369183163,8.31544125224306 -56.8427396660861,8.31521516461197 -56.8425041827988,8.31494298910204 -56.842038666156,8.31439400588613 -56.8418086573072,8.31411722533224 -56.8413541812096,8.31355914154204 -56.8411297366507,8.31327786545709 -56.8407396894857,8.31278020089789 -56.8406864798892,8.31271090192696 -56.84046768856,8.31242524072787 -56.8400358262868,8.31184962009949 -56.839822775307,8.3115596878204 -56.83940247631,8.31097563725512 -56.839195249164,8.31068154792853 -56.8387866804085,8.31008929820464 -56.8385853587614,8.30979116676652 -56.8385154751411,8.30968729110801 -56.8381886808493,8.30919095137272 -56.8379933445461,8.30888889637614 -56.8376087144402,8.30828095241709 -56.8374194396904,8.30797509331781 -56.8370470088992,8.30735965970422 -56.8368638710012,8.3070501168617 -56.8366932935835,8.30675870603315 -56.8365037864857,8.30642743702419 -56.8363268571028,8.30611433170052 -56.8359792603693,8.30548465178011 -56.8358086093447,8.30516810885419 -56.8354736373536,8.30453167679801 -56.8353093327123,8.30421182024295 -56.8350617390197,8.30372065572103 -56.8349871178773,8.30356888761324 -56.8348292240087,8.30324584320912 -56.8345198932897,8.30259666337365 -56.8343684718557,8.30227055961234 -56.8340721476669,8.30161538774478 -56.8339272585111,8.30128635311671 -56.8336440569039,8.30062544890932 -56.8335057580512,8.30029361280803 -56.8334891181425,8.30025361892752 -56.8332357914403,8.29962723685461 -56.8331041363726,8.29929272957543 -56.8328475099031,8.29862114427426 -56.832722551191,8.29828409972955 -56.832479367279,8.29760757018972 -56.8323611529517,8.29726811957546 -56.8322779214979,8.29702636475303 -56.8321315067441,8.29658691271039 -56.8320200857363,8.29624518993572 -56.8318040669269,8.29555957536838 -56.8316994818141,8.29521571614789 -56.8314971773697,8.29452596259375 -56.8313994680015,8.29418010263998 -56.8312751626053,8.29372892864676 -56.8312109567111,8.29348648333186 -56.8311201629357,8.29313875835641 -56.830945519045,8.29244154652326 -56.8308616770762,8.29209209404424 -56.8307009693789,8.29139156471981 -56.8306241117964,8.29104052315739 -56.8304848992643,8.29037467743714 -56.8304774027266,8.29033695317975 -56.8304075593855,8.28998445914279 -56.8303394734767,8.28963162030342 -56.827748132562,8.27583291963357 -56.8052999833663,8.22947223002389 -56.8051463577886,8.22915088639143 -56.804994322649,8.22882879813149 -56.8046966283783,8.22818167121543 -56.8045509837502,8.22785666513428 -56.8042661276032,8.22720382925906 -56.8041269305873,8.22687603113527 -56.8040147110443,8.22660878609356 -56.8038550231318,8.22621773785554 -56.8037223262868,8.22588727436926 -56.803463472637,8.22522377975824 -56.8033373276109,8.22489077939753 -56.8030916274303,8.22422233861964 -56.8029720840531,8.2238869307754 -56.8028002686735,8.2233936007 -56.8027396324594,8.2232138044185 -56.8026267360203,8.22287611757407 -56.8024076226808,8.22219856531709 -56.8023014166497,8.22185873157217 -56.8020957275963,8.22117701489966 -56.8019962536262,8.22083516544767 -56.8018040667144,8.22014954945652 -56.8017113628246,8.21980581639273 -56.8017002339228,8.21976445169941 -56.8015327531838,8.21911656617658 -56.8014468564842,8.2187710824994 -56.8012818928849,8.2180784640515 -56.801202835036,8.21773136366028 -56.8010515807974,8.21703564658737 -56.8009793925503,8.21668706428453 -56.8009245828641,8.21641721001406 -56.8008419082659,8.21598851728552 -56.8007766176473,8.21563858696662 -56.8006529539212,8.214937479638 -56.8005945862317,8.21458633790986 -56.800484791849,8.21388294255883 -56.8004333705736,8.21353072421727 -56.8003635458287,8.21302769262287 -56.800337487054,8.21282531404988 -56.8002930311363,8.21247215569652 -56.8002110972754,8.21176500210629 -56.8001736229348,8.21141104034033 -56.800105669354,8.21070241833283 -56.8000751919009,8.2103477906565 -56.8000212446818,8.2096379734238 -56.7999977767025,8.20928281733695 -56.7999959115347,8.20925441654247 -56.7999578564779,8.20857207987536 -56.7999414060187,8.20821653287446 -56.7999155279731,8.20750515017544 -56.7999061021723,8.20714934975547 -56.7998942769506,8.20643759680609 -56.7998918784068,8.20608168045869 -56.7998910638505,8.20582072179424 -56.7998941093894,8.20536983404935 -56.7998987397934,8.20501393926461 -56.7999150267302,8.20430227437263 -56.7999266841407,8.20394653954235 -56.7999570213339,8.20323533204477 -56.7999757001791,8.20287989374875 -56.8000049682409,8.20238729970035 -56.8000200746689,8.20216941861234 -56.8000457684685,8.20181441523798 -56.8001041627565,8.20110494652058 -56.8001368613991,8.20075051645242 -56.8002092543554,8.20004233001702 -56.8002489450081,8.19968860801904 -56.8003353073338,8.1989819779135 -56.8003819744386,8.19862910326997 -56.8003838262353,8.19861512630957 -56.8004822732054,8.19792430172915 -56.8005358984827,8.19757241010385 -56.8006500944077,8.19686971116658 -56.8007106577634,8.19651893822138 -56.8007740837595,8.19616228353475 -56.8137971857045,8.12499216728638 -56.8139290926919,8.12422836807019 -56.814020339415,8.12372160569849 -56.8140801788167,8.12340235295497 -56.8141638393604,8.12297056934675 -56.8142150739518,8.12271915806545 -56.8142810677004,8.12240111293419 -56.8144291299989,8.12172063123835 -56.8145012525815,8.12140391038387 -56.8146624273733,8.12072639329777 -56.8147406523698,8.12041111428802 -56.8149148795408,8.11973681322361 -56.8149991778094,8.11942309271994 -56.8150050606939,8.11940122800364 -56.8151863936174,8.11875225727684 -56.8152767342026,8.11844021103456 -56.8154768685544,8.11777308990343 -56.8155732177785,8.11746283367588 -56.8157861960453,8.11679967463928 -56.8158885184169,8.11649132327372 -56.8159848052033,8.11620516579625 -56.8161142623435,8.11583237049291 -56.816222518742,8.11552603792978 -56.8162906340376,8.11533500506168 -56.8165170857986,8.11470549527939 -56.850124823693,8.02050398900869 -56.8502458590164,8.02016984827002 -56.8503676562402,8.01983870454283 -56.8506177141468,8.01917881635888 -56.8507459639199,8.01885010264896 -56.8510088796515,8.01819519838778 -56.8511435328856,8.01786903858256 -56.8511805516909,8.01777971028794 -56.8514192055445,8.01721936782657 -56.8515602122455,8.01689588671711 -56.8518485373088,8.01625169542791 -56.8519958429475,8.01593101599391 -56.8522967104515,8.01529254922544 -56.8524502586862,8.01497479263625 -56.8526035174009,8.01466150436347 -56.8527635550417,8.0143422936309 -56.8529232886251,8.01402758105504 -56.8532488938955,8.01340128943369 -56.8534147510457,8.01308974022841 -56.8537525425769,8.01246989380092 -56.8539244606066,8.01216162641815 -56.8542214986157,8.01163925773704 -56.854274308489,8.01154846208632 -56.854452221991,8.01124359407206 -56.8548139935986,8.01063734330863 -56.8549978344461,8.01033599039842 -56.8553713935273,8.00973688467411 -56.8555610926889,8.00943916079371 -56.8559462948309,8.00884742705296 -56.856141780555,8.00855344522235 -56.8562234770553,8.00843112486368 -56.8565384804424,8.0079693095042 -56.8567396773504,8.00767918183723 -56.8571477251366,8.00710286475132 -56.8573545569449,8.00681670245681 -56.8577737964365,8.00624842280105 -56.8579861841427,8.00596633346847 -56.8582281243257,8.00564865550743 -56.8584164564291,8.00540630823048 -56.8586343201256,8.00512839944886 -56.8590754617652,8.0045768410917 -56.8592987179176,8.00430321863961 -56.8597505609374,8.00376033600646 -56.8599791251069,8.00349110385306 -56.8604053020283,8.00299815481314 -56.8604414979095,8.00295710397669 -56.8606752829381,8.00269236337655 -56.8611480093946,8.0021674505746 -56.8613869272194,8.00190730278202 -56.8618698275783,8.00139167413466 -56.8621137865099,8.00113621768915 -56.8626066773945,8.00063007118011 -56.8628555857461,8.00037940371678 -56.8629951722152,8.00023959441105 -56.8633582792499,7.99988292918763 -56.863612041708,7.99963714653145 -56.8641243481143,7.9991505347281 -56.8643828675543,7.99890972908549 -56.8649045917087,7.99843316351616 -56.8651677710082,7.9981974270938 -56.8655047834953,7.99789930309138 -56.8656987141323,7.99773108945704 -56.8659664525424,7.99750051174707 -56.866235318176,7.99727123406396 -56.8936981682113,7.97407988877526 -56.8931273346177,7.97062434689969 -56.8926629622721,7.96591163422839 -56.8925087763238,7.9611787340062 -56.8926654259119,7.95644591316673 -56.8931322300208,7.95173343762102 -56.8939071786374,7.9470614854327 -56.9057345514478,7.89470933251676 -56.9095871246632,7.88389756250241 -56.9136930569833,7.87487326244877 -56.9159326066073,7.87069744984588 -56.9184412116799,7.86667661577231 -56.9212081262107,7.86282797175836 -56.9242214982092,7.85916799445528 -56.9274684214739,7.85571235157522 -56.9303533627748,7.85286423911734 -56.9338646534622,7.84950188688419 -56.9380429522236,7.84592472536945 -56.942126051859,7.84291180634779 -56.9459127023014,7.84049796089297 -56.9485777435777,7.83898169792316 -56.9522496560608,7.83706363892478 -56.9555634021711,7.83539001041313 -56.9598889625485,7.83343609841962 -56.9643333746673,7.83176844124599 -56.9732126076862,7.82937723079197 -56.9827961098586,7.82761464363705 -57.1580676463144,7.80250018396499 -57.1600941730244,7.80220425502241 -57.1648193844497,7.80173828860249</coordinates></LinearRing></outerBoundaryIs></Polygon></MultiGeometry>
  </Placemark>
</Folder>
</Document></kml>
