<?xml version="1.0" encoding="utf-8" ?>
<kml xmlns="http://www.opengis.net/kml/2.2">
<Document id="root_doc">
<Schema name="operational_area" id="operational_area">
	<SimpleField name="Descrip" type="string"></SimpleField>
	<SimpleField name="BUFF_DIST" type="float"></SimpleField>
	<SimpleField name="ORIG_FID" type="float"></SimpleField>
	<SimpleField name="Shape_Area" type="float"></SimpleField>
	<SimpleField name="Planar_Are" type="float"></SimpleField>
</Schema>
<Folder><name>operational_area</name>
  <Placemark>
	<Style><LineStyle><color>ff0000ff</color></LineStyle><PolyStyle><fill>0</fill></PolyStyle></Style>
	<ExtendedData><SchemaData schemaUrl="#operational_area">
		<SimpleData name="Descrip">Extent for CEC</SimpleData>
		<SimpleData name="BUFF_DIST">20000.00000000000</SimpleData>
		<SimpleData name="ORIG_FID">0</SimpleData>
		<SimpleData name="Shape_Area">9496763887.64999961853</SimpleData>
		<SimpleData name="Planar_Are">9317.50099610000</SimpleData>
	</SchemaData></ExtendedData>
      <MultiGeometry><Polygon><outerBoundaryIs><LinearRing><coordinates>-57.9802959233411,11.0569832591057 -57.2872273042337,10.9882330667887 -57.2872222217931,10.9882325569888 -57.2872222219582,10.9090691954457 -58.7147543125228,10.3138802638114 -58.7150811472277,10.3146623918085 -58.7155122427256,10.3157126045545 -58.7159366840413,10.3167654706248 -58.7163544544847,10.317820951268 -58.7167655364273,10.318879003217 -58.717169914085,10.3199395868113 -58.7175675725616,10.3210026578649 -58.7179584942453,10.3220681767264 -58.7183426651608,10.3231361010127 -58.7187200704187,10.3242063883453 -58.7190906942162,10.3252789963503 -58.7194545216719,10.3263538844569 -58.7198115387973,10.327431008473 -58.7201617325355,10.3285103278175 -58.7205050879832,10.3295917983027 -58.7208415920818,10.330675379347 -58.7211712308444,10.3317610276613 -58.721493991196,10.3328486999515 -58.7218098618919,10.3339383538173 -58.7221188289477,10.335029946873 -58.7224208801991,10.3361234358186 -58.722716004399,10.3372187782531 -58.7230041902948,10.3383159308712 -58.7232854248022,10.3394148494729 -58.7235596985027,10.3405154925505 -58.7238270001366,10.3416178158939 -58.7240873184533,10.3427217771003 -58.7243406440126,10.3438273310452 -58.7245869664806,10.3449344362244 -58.7248262755075,10.3460430484215 -58.7250585625694,10.3471531234098 -58.7252838173251,10.3482646187804 -58.7255020321624,10.3493774903009 -58.7257131976421,10.3504916937488 -58.7259173052426,10.3516071858001 -58.7261143473546,10.3527239231255 -58.7263043163583,10.3538418605874 -58.7264872046483,10.35496095576 -58.7266630036907,10.3560811635096 -58.7268317086081,10.357202439587 -58.7269933108804,10.3583247415699 -58.7271478047112,10.3594480243091 -58.7272951843086,10.3605722435589 -58.7274354438802,10.361697355073 -58.7275685776381,10.3628233155092 -58.7276945788708,10.3639500797214 -58.7278134454369,10.3650776034426 -58.7279251697158,10.3662058424349 -58.7280297486572,10.3673347533396 -58.7281271782821,10.3684642900902 -58.7282174546311,10.3695944102358 -58.7283005737245,10.3707250677095 -58.7283765315972,10.3718562191553 -58.7284453260999,10.3729878193995 -58.7285069541797,10.3741198250805 -58.728561413682,10.3752521901196 -58.7286087024662,10.3763848711494 -58.7286488174687,10.3775178229994 -58.7286817574568,10.3786510013922 -58.7287075221155,10.3797843629496 -58.7287261092834,10.3809178606864 -58.72873751865,10.3820514521274 -58.7287417498896,10.3831850920845 -58.7288434473797,10.5499427602984 -58.7289555839998,10.7297598462574 -58.7289990029043,10.8099534390836 -58.7291057381623,10.9847353579022 -58.7290986533481,11.0248825361057 -58.7292797348651,11.2675794968963 -58.7292770160093,11.2687197813778 -58.729267012076,11.2698600259467 -58.7292497236245,11.2710001854111 -58.729225150298,11.2721402145838 -58.7291932944817,11.2732800673574 -58.7291541558292,11.2744197003517 -58.7291077357988,11.2755590656555 -58.7290540377126,11.2766981207701 -58.7289930630288,11.2778368177833 -58.7289248132321,11.2789751133021 -58.7288492907017,11.2801129603116 -58.7287664996699,11.2812503154019 -58.728676443437,11.2823871324557 -58.7285791243874,11.2835233653607 -58.7284745467534,11.284658970705 -58.728362714751,11.2857939023644 -58.7282436326018,11.2869281151183 -58.7281173045328,11.2880615646492 -58.7279837365865,11.2891942039166 -58.727842933001,11.2903259904101 -58.7276948998189,11.291456877088 -58.7275396421889,11.2925868205294 -58.7273771670753,11.2937157745901 -58.7272074796214,11.2948436949442 -58.7270305877133,11.2959705363451 -58.7268464983265,11.297096254455 -58.7266552184368,11.2982208049354 -58.7264567550094,11.2993441416396 -58.7262511159364,11.3004662202227 -58.7260383100315,11.3015869972379 -58.7258183451765,11.3027064265314 -58.7255912292696,11.3038244646606 -58.725356972952,11.3049410672624 -58.7251155850274,11.30605618908 -58.7248670733898,11.3071697857651 -58.7246114496024,11.3082818138517 -58.7243487233916,11.3093922289798 -58.7240789044786,11.3105009858849 -58.7238020044333,11.3116080420033 -58.7235180338937,11.312713352064 -58.7232270035091,11.3138168726035 -58.7229289248397,11.3149185592485 -58.7226238103729,11.3160183694276 -58.7223116716646,11.3171162578624 -58.7219925211977,11.3182121810765 -58.7216663714612,11.3193060964971 -58.7213332358549,11.3203979606413 -58.7209931259367,11.3214877282284 -58.7206460578663,11.3225753575668 -58.7202920432135,11.3236608051825 -58.7199310962962,11.3247440275854 -58.7195632314333,11.3258249812848 -58.7191884638655,11.3269036236879 -58.7188068088341,11.3279799122015 -58.7184182797437,11.3290538033388 -58.718022892753,11.3301252545001 -58.7176206640267,11.3311942239894 -58.7172116088032,11.3322606683076 -58.7167957432432,11.3333245448534 -58.7163730853455,11.3343858119187 -58.7159436494402,11.3354444269121 -58.7155074544381,11.3365003472151 -58.7150645165135,11.3375535320325 -58.7146148536627,11.3386039387502 -58.7141584838882,11.3396515256574 -58.7136954242773,11.3406962510484 -58.7132256946609,11.3417380722967 -58.7127493130598,11.3427769504024 -58.7122662983851,11.3438128418394 -58.7117766686488,11.3448457057987 -58.7112804446171,11.3458755023588 -58.710777646125,11.346902188891 -58.7102682921085,11.3479257254836 -58.7097524033312,11.3489460713098 -58.7092300005574,11.3499631855422 -58.708701103642,11.3509770282625 -58.7081657342618,11.3519875577331 -58.7076239132003,11.3529947358375 -58.7070756621309,11.3539985199333 -58.7065210036765,11.3549988727965 -58.7059599576803,11.3559957517945 -58.7053925485993,11.3569891196918 -58.7048187981217,11.3579789356525 -58.7042387279472,11.3589651606481 -58.7036523634412,11.3599477556288 -58.7030597253843,11.3609266806666 -58.702460839149,11.3619018976148 -58.7018557282664,11.3628733665289 -58.7012444153682,11.3638410501813 -58.700626925825,11.3648049095202 -58.7000032840923,11.3657649054986 -58.6993735155536,11.3667210008721 -58.6987376437558,11.3676731575022 -58.6980956940739,11.3686213363359 -58.6974476937321,11.3695655010209 -58.6967936671969,11.3705056134127 -58.6961336398519,11.3714416353611 -58.6954676389249,11.372373530513 -58.6947956907286,11.3733012625202 -58.6941178215609,11.3742247923224 -58.6934340586585,11.3751440844697 -58.6927444292482,11.3760591017038 -58.6920489605691,11.3769698085741 -58.691347680772,11.3778761687205 -58.6906406161715,11.3787781448893 -58.6899277967637,11.3796757025173 -58.6892092488657,11.3805688043503 -58.6884850033975,11.3814574167232 -58.6877550875946,11.3823415023762 -58.6870195305421,11.3832210267504 -58.6862783613314,11.3840959561906 -58.6855316099504,11.3849662534205 -58.6847793064145,11.3858318856832 -58.6840214798137,11.3866928184193 -58.68325816015,11.3875490161595 -58.6824893783536,11.3884004452373 -58.681715165356,11.3892470719861 -58.6809355511736,11.3900888627442 -58.6801505667405,11.3909257838445 -58.6793602439134,11.3917578025188 -58.6785646127125,11.3925848851048 -58.6777637068245,11.3934069979194 -58.6769575571989,11.3942241091031 -58.6761461947868,11.3950361867962 -58.6753296532784,11.395843197315 -58.6745079645437,11.3966451087945 -58.6736811622861,11.3974418893589 -58.6728492774671,11.3982335080522 -58.6720123447038,11.3990199320893 -58.6711703958818,11.3998011314126 -58.670323466537,11.4005770732318 -58.6694715885681,11.4013477292972 -58.6686147965923,11.4021130659195 -58.6677531243434,11.4028730548386 -58.6668866064517,11.4036276641732 -58.6660152766483,11.404376864759 -58.6651391704983,11.4051206274215 -58.6642583226411,11.4058589211833 -58.6633727686443,11.4065917168697 -58.6624825422444,11.4073189853167 -58.6615876799332,11.4080406982483 -58.6606882172822,11.4087568264903 -58.6597841898696,11.409467341772 -58.6588756341911,11.4101722158178 -58.6579625849059,11.4108714194586 -58.6570450794339,11.4115649253177 -58.6561231542853,11.4122527069277 -58.6551968468773,11.4129347360081 -58.6542661918849,11.4136109851979 -58.6533312285656,11.4142814271106 -58.6523919934403,11.414946036183 -58.6514485230254,11.4156047859483 -58.6505008556662,11.4162576490254 -58.6495490288037,11.4169045998464 -58.6485930807959,11.4175456128385 -58.6476330490917,11.4181806633382 -58.6466689729576,11.4188097239597 -58.6457008889338,11.4194327709491 -58.6447288372215,11.4200497796279 -58.6437528552743,11.4206607253332 -58.6427729832961,11.4212655833869 -58.6417892587482,11.4218643300306 -58.640801721837,11.4224569405867 -58.6406409006951,11.4225520813207 -58.5193972361591,11.3556209624177 -57.9802959233411,11.0569832591057</coordinates></LinearRing></outerBoundaryIs></Polygon></MultiGeometry>
  </Placemark>
</Folder>
</Document></kml>
